{"type": "FeatureCollection", "features": [{"type": "Feature", "properties": {"norad_id": 28890, "name": "BEIJING 1", "group": "dmc", "lat": -36.80041986258379, "lon": -64.31818634976179, "alt_km": 690.3032038608062, "timestamp": "2025-12-20T09:36:01.298344+00:00", "meta": {"OBJECT_NAME": "BEIJING 1", "OBJECT_ID": "2005-043A", "EPOCH": "2025-12-19T22:45:59.183424", "MEAN_MOTION": 14.63372898, "ECCENTRICITY": 0.00156348, "INCLINATION": 98.2654, "RA_OF_ASC_NODE": 121.4726, "ARG_OF_PERICENTER": 119.894, "MEAN_ANOMALY": 240.3818, "EPHEMERIS_TYPE": 0, "CLASSIFICATION_TYPE": "U", "NORAD_CAT_ID": 28890, "ELEMENT_SET_NO": 999, "REV_AT_EPOCH": 7443, "BSTAR": 8.845555e-05, "MEAN_MOTION_DOT": 4.09e-06, "MEAN_MOTION_DDOT": 0}, "tle": {"line1": "1 28890U 05043A   25353.94860166  .00000409  00000+0  88456-4 0  9994", "line2": "2 28890  98.2654 121.4726 0015634 119.8940 240.3818 14.63372898 74432"}}, "geometry": {"type": "Point", "coordinates": [-64.31818634976179, -36.80041986258379]}}, {"type": "Feature", "properties": {"norad_id": 33320, "name": "HUANJING 1A (HJ-1A)", "group": "dmc", "lat": 74.00173160049043, "lon": -45.591061314963994, "alt_km": 605.8591946443466, "timestamp": "2025-12-20T09:36:01.298369+00:00", "meta": {"OBJECT_NAME": "HUANJING 1A (HJ-1A)", "OBJECT_ID": "2008-041A", "EPOCH": "2025-12-20T04:24:13.974912", "MEAN_MOTION": 14.8341547, "ECCENTRICITY": 0.0019642, "INCLINATION": 97.6535, "RA_OF_ASC_NODE": 342.1712, "ARG_OF_PERICENTER": 10.7747, "MEAN_ANOMALY": 349.3884, "EPHEMERIS_TYPE": 0, "CLASSIFICATION_TYPE": "U", "NORAD_CAT_ID": 33320, "ELEMENT_SET_NO": 999, "REV_AT_EPOCH": 93186, "BSTAR": 0.00014007, "MEAN_MOTION_DOT": 1.102e-05, "MEAN_MOTION_DDOT": 0}, "tle": {"line1": "1 33320U 08041A   25354.18349508  .00001102  00000+0  14007-3 0  9999", "line2": "2 33320  97.6535 342.1712 0019642  10.7747 349.3884 14.83415470931869"}}, "geometry": {"type": "Point", "coordinates": [-45.591061314963994, 74.00173160049043]}}, {"type": "Feature", "properties": {"norad_id": 33321, "name": "HUANJING 1B (HJ-1B)", "group": "dmc", "lat": -76.92910084918509, "lon": 21.373397748518936, "alt_km": 645.0703780751846, "timestamp": "2025-12-20T09:36:01.298384+00:00", "meta": {"OBJECT_NAME": "HUANJING 1B (HJ-1B)", "OBJECT_ID": "2008-041B", "EPOCH": "2025-12-20T05:05:57.708672", "MEAN_MOTION": 14.82840621, "ECCENTRICITY": 0.0037997, "INCLINATION": 97.6395, "RA_OF_ASC_NODE": 345.8765, "ARG_OF_PERICENTER": 52.1734, "MEAN_ANOMALY": 308.291, "EPHEMERIS_TYPE": 0, "CLASSIFICATION_TYPE": "U", "NORAD_CAT_ID": 33321, "ELEMENT_SET_NO": 999, "REV_AT_EPOCH": 93188, "BSTAR": 0.0001633, "MEAN_MOTION_DOT": 1.287e-05, "MEAN_MOTION_DDOT": 0}, "tle": {"line1": "1 33321U 08041B   25354.21247348  .00001287  00000+0  16330-3 0  9998", "line2": "2 33321  97.6395 345.8765 0037997  52.1734 308.2910 14.82840621931886"}}, "geometry": {"type": "Point", "coordinates": [21.373397748518936, -76.92910084918509]}}, {"type": "Feature", "properties": {"norad_id": 33446, "name": "YAOGAN-4", "group": "dmc", "lat": -8.898403083938373, "lon": 103.17549533045697, "alt_km": 627.6783272820703, "timestamp": "2025-12-20T09:36:01.298396+00:00", "meta": {"OBJECT_NAME": "YAOGAN-4", "OBJECT_ID": "2008-061A", "EPOCH": "2025-12-20T02:16:16.821696", "MEAN_MOTION": 14.82701971, "ECCENTRICITY": 0.0013132, "INCLINATION": 97.9192, "RA_OF_ASC_NODE": 284.1219, "ARG_OF_PERICENTER": 297.4336, "MEAN_ANOMALY": 62.5541, "EPHEMERIS_TYPE": 0, "CLASSIFICATION_TYPE": "U", "NORAD_CAT_ID": 33446, "ELEMENT_SET_NO": 999, "REV_AT_EPOCH": 91912, "BSTAR": 0.0001179, "MEAN_MOTION_DOT": 8.99e-06, "MEAN_MOTION_DDOT": 0}, "tle": {"line1": "1 33446U 08061A   25354.09463914  .00000899  00000+0  11790-3 0  9996", "line2": "2 33446  97.9192 284.1219 0013132 297.4336  62.5541 14.82701971919125"}}, "geometry": {"type": "Point", "coordinates": [103.17549533045697, -8.898403083938373]}}, {"type": "Feature", "properties": {"norad_id": 35681, "name": "DEIMOS-1", "group": "dmc", "lat": 72.52035797547326, "lon": 0.14183035281933884, "alt_km": 636.8742656060149, "timestamp": "2025-12-20T09:36:01.298408+00:00", "meta": {"OBJECT_NAME": "DEIMOS-1", "OBJECT_ID": "2009-041A", "EPOCH": "2025-12-20T04:14:19.017600", "MEAN_MOTION": 14.74963441, "ECCENTRICITY": 0.00026, "INCLINATION": 97.7143, "RA_OF_ASC_NODE": 154.4332, "ARG_OF_PERICENTER": 67.8548, "MEAN_ANOMALY": 292.2937, "EPHEMERIS_TYPE": 0, "CLASSIFICATION_TYPE": "U", "NORAD_CAT_ID": 35681, "ELEMENT_SET_NO": 999, "REV_AT_EPOCH": 88049, "BSTAR": 8.5242e-05, "MEAN_MOTION_DOT": 5.26e-06, "MEAN_MOTION_DDOT": 0}, "tle": {"line1": "1 35681U 09041A   25354.17660900  .00000526  00000+0  85242-4 0  9992", "line2": "2 35681  97.7143 154.4332 0002600  67.8548 292.2937 14.74963441880490"}}, "geometry": {"type": "Point", "coordinates": [0.14183035281933884, 72.52035797547326]}}, {"type": "Feature", "properties": {"norad_id": 35683, "name": "UK-DMC 2", "group": "dmc", "lat": 40.103795569198994, "lon": -44.235729575858194, "alt_km": 639.2872400194137, "timestamp": "2025-12-20T09:36:01.298419+00:00", "meta": {"OBJECT_NAME": "UK-DMC 2", "OBJECT_ID": "2009-041C", "EPOCH": "2025-12-20T04:05:19.986144", "MEAN_MOTION": 14.75637212, "ECCENTRICITY": 0.0001527, "INCLINATION": 97.8562, "RA_OF_ASC_NODE": 128.8634, "ARG_OF_PERICENTER": 93.6591, "MEAN_ANOMALY": 266.4793, "EPHEMERIS_TYPE": 0, "CLASSIFICATION_TYPE": "U", "NORAD_CAT_ID": 35683, "ELEMENT_SET_NO": 999, "REV_AT_EPOCH": 88016, "BSTAR": 0.00013163, "MEAN_MOTION_DOT": 8.49e-06, "MEAN_MOTION_DDOT": 0}, "tle": {"line1": "1 35683U 09041C   25354.17037021  .00000849  00000+0  13163-3 0  9996", "line2": "2 35683  97.8562 128.8634 0001527  93.6591 266.4793 14.75637212880162"}}, "geometry": {"type": "Point", "coordinates": [-44.235729575858194, 40.103795569198994]}}, {"type": "Feature", "properties": {"norad_id": 40715, "name": "DMC3-FM1", "group": "dmc", "lat": 78.53917063758924, "lon": 82.96525627477432, "alt_km": 607.7473401146881, "timestamp": "2025-12-20T09:36:01.298430+00:00", "meta": {"OBJECT_NAME": "DMC3-FM1", "OBJECT_ID": "2015-032A", "EPOCH": "2025-12-20T04:18:29.931840", "MEAN_MOTION": 14.85451271, "ECCENTRICITY": 0.0004231, "INCLINATION": 97.6689, "RA_OF_ASC_NODE": 221.1003, "ARG_OF_PERICENTER": 290.9894, "MEAN_ANOMALY": 69.0868, "EPHEMERIS_TYPE": 0, "CLASSIFICATION_TYPE": "U", "NORAD_CAT_ID": 40715, "ELEMENT_SET_NO": 999, "REV_AT_EPOCH": 56333, "BSTAR": 6.9054e-05, "MEAN_MOTION_DOT": 5.44e-06, "MEAN_MOTION_DDOT": 0}, "tle": {"line1": "1 40715U 15032A   25354.17951310  .00000544  00000+0  69054-4 0  9994", "line2": "2 40715  97.6689 221.1003 0004231 290.9894  69.0868 14.85451271563339"}}, "geometry": {"type": "Point", "coordinates": [82.96525627477432, 78.53917063758924]}}, {"type": "Feature", "properties": {"norad_id": 40716, "name": "DMC3-FM2", "group": "dmc", "lat": -21.535891976638972, "lon": -134.18725505191068, "alt_km": 615.0466898392988, "timestamp": "2025-12-20T09:36:01.298441+00:00", "meta": {"OBJECT_NAME": "DMC3-FM2", "OBJECT_ID": "2015-032B", "EPOCH": "2025-12-20T03:13:52.737888", "MEAN_MOTION": 14.85455854, "ECCENTRICITY": 0.0004728, "INCLINATION": 97.6749, "RA_OF_ASC_NODE": 222.5064, "ARG_OF_PERICENTER": 297.4505, "MEAN_ANOMALY": 62.623, "EPHEMERIS_TYPE": 0, "CLASSIFICATION_TYPE": "U", "NORAD_CAT_ID": 40716, "ELEMENT_SET_NO": 999, "REV_AT_EPOCH": 56332, "BSTAR": 0.00015633, "MEAN_MOTION_DOT": 1.297e-05, "MEAN_MOTION_DDOT": 0}, "tle": {"line1": "1 40716U 15032B   25354.13463817  .00001297  00000+0  15633-3 0  9990", "line2": "2 40716  97.6749 222.5064 0004728 297.4505  62.6230 14.85455854563323"}}, "geometry": {"type": "Point", "coordinates": [-134.18725505191068, -21.535891976638972]}}, {"type": "Feature", "properties": {"norad_id": 40717, "name": "DMC3-FM3", "group": "dmc", "lat": -42.02225330423181, "lon": 37.41587996606302, "alt_km": 618.177509114641, "timestamp": "2025-12-20T09:36:01.298451+00:00", "meta": {"OBJECT_NAME": "DMC3-FM3", "OBJECT_ID": "2015-032C", "EPOCH": "2025-12-20T05:22:06.377952", "MEAN_MOTION": 14.85442323, "ECCENTRICITY": 0.0004113, "INCLINATION": 97.6804, "RA_OF_ASC_NODE": 224.2304, "ARG_OF_PERICENTER": 299.8262, "MEAN_ANOMALY": 60.2544, "EPHEMERIS_TYPE": 0, "CLASSIFICATION_TYPE": "U", "NORAD_CAT_ID": 40717, "ELEMENT_SET_NO": 999, "REV_AT_EPOCH": 56334, "BSTAR": 9.617e-05, "MEAN_MOTION_DOT": 7.77e-06, "MEAN_MOTION_DDOT": 0}, "tle": {"line1": "1 40717U 15032C   25354.22368493  .00000777  00000+0  96170-4 0  9993", "line2": "2 40717  97.6804 224.2304 0004113 299.8262  60.2544 14.85442323563347"}}, "geometry": {"type": "Point", "coordinates": [37.41587996606302, -42.02225330423181]}}]}